{
    "links": {
        "self": "http://www.neowsapp.com/rest/v1/neo/3624057?api_key=iIulBulltgU6a56xZRHN4H3l9WmuAYTsLGpBGhQ2"
    },
    "id": "3624057",
    "neo_reference_id": "3624057",
    "name": "(2013 AS72)",
    "designation": "2013 AS72",
    "nasa_jpl_url": "http://ssd.jpl.nasa.gov/sbdb.cgi?sstr=3624057",
    "absolute_magnitude_h": 24.0,
    "estimated_diameter": {
        "kilometers": {
            "estimated_diameter_min": 0.0421264611,
            "estimated_diameter_max": 0.0941976306
        },
        "meters": {
            "estimated_diameter_min": 42.1264610556,
            "estimated_diameter_max": 94.1976305719
        },
        "miles": {
            "estimated_diameter_min": 0.0261761612,
            "estimated_diameter_max": 0.0585316759
        },
        "feet": {
            "estimated_diameter_min": 138.2101784897,
            "estimated_diameter_max": 309.0473542854
        }
    },
    "is_potentially_hazardous_asteroid": false,
    "close_approach_data": [
        {
            "close_approach_date": "2013-01-13",
            "close_approach_date_full": "2013-Jan-13 07:50",
            "epoch_date_close_approach": 1358063400000,
            "relative_velocity": {
                "kilometers_per_second": "8.6575451656",
                "kilometers_per_hour": "31167.1625960792",
                "miles_per_hour": "19366.0627808804"
            },
            "miss_distance": {
                "astronomical": "0.0440719203",
                "lunar": "17.1439769967",
                "kilometers": "6593065.403689761",
                "miles": "4096740.8734542618"
            },
            "orbiting_body": "Earth"
        }
    ],
    "orbital_data": {
        "orbit_id": "7",
        "orbit_determination_date": "2017-04-06 08:47:14",
        "first_observation_date": "2013-01-13",
        "last_observation_date": "2013-01-19",
        "data_arc_in_days": 6,
        "observations_used": 40,
        "orbit_uncertainty": "7",
        "minimum_orbit_intersection": ".0291177",
        "jupiter_tisserand_invariant": "3.491",
        "epoch_osculation": "2459000.5",
        "eccentricity": ".5309665601478749",
        "semi_major_axis": "2.156317752206169",
        "inclination": "8.821881691871825",
        "ascending_node_longitude": "118.4525216087784",
        "orbital_period": "1156.558392343151",
        "perihelion_distance": "1.011385132731462",
        "perihelion_argument": "6.813090612200813",
        "aphelion_distance": "3.301250371680877",
        "perihelion_time": "2458624.991055647535",
        "mean_anomaly": "116.884042225495",
        "mean_motion": ".3112683305774568",
        "equinox": "J2000",
        "orbit_class": {
            "orbit_class_type": "APO",
            "orbit_class_description": "Near-Earth asteroid orbits which cross the Earth’s orbit similar to that of 1862 Apollo",
            "orbit_class_range": "a (semi-major axis) > 1.0 AU; q (perihelion) < 1.017 AU"
        }
    },
    "is_sentry_object": false
}